     2.11           N: GPS NAV DATA                         RINEX VERSION / TYPE
teqc  2018Dec12     gpsops              20220424 01:04:06UTCPGM / RUN BY / DATE
Linux 2.6.32-573.12.1.x86_64|x86_64|gcc -static|Linux 64|=+ COMMENT
CHPI                                    MARKER NAME         COMMENT
41609M003                               MARKER NUMBER       COMMENT
4164613.9484 -4162456.9866 -2445028.7316                    COMMENT
                                                            COMMENT
This data is provided as a public service by NASA/JPL.      COMMENT
No warranty is expressed or implied regarding suitability   COMMENT
for use.  For further information, contact:                 COMMENT
Dave Stowers, NASA/JPL m/s 238-600                          COMMENT
4800 Oak Grove Drive, Pasadena CA 91109 USA                 COMMENT
                                                            END OF HEADER
28 22  4 23  0  0  0.0 3.684577532113D-04-4.547473508865D-12 0.000000000000D+00
    9.800000000000D+01 4.665625000000D+01 4.301250592923D-09-2.506907388698D-01
    2.348795533180D-06 1.663314166944D-02 8.754432201385D-06 5.153685806274D+03
    5.184000000000D+05-3.725290298462D-07 1.228949582454D+00-8.381903171539D-08
    9.685726815799D-01 2.188437500000D+02-1.280326228189D+00-8.109623512656D-09
   -1.917937032633D-10 1.000000000000D+00 2.206000000000D+03 0.000000000000D+00
    2.800000000000D+00 6.300000000000D+01-1.117587089539D-08 9.800000000000D+01
    5.112180000000D+05 4.000000000000D+00
30 22  4 23  0  0  0.0-5.249548703432D-04-1.591615728103D-12 0.000000000000D+00
    3.600000000000D+01 1.903125000000D+01 5.192716297477D-09 2.718389041095D+00
    9.313225746155D-07 5.723810405470D-03 7.381662726402D-06 5.153774856567D+03
    5.184000000000D+05-8.940696716309D-08 1.061793622252D-01-8.940696716309D-08
    9.363769458012D-01 2.248437500000D+02-2.713850314347D+00-8.204627469952D-09
   -4.214461263514D-11 1.000000000000D+00 2.206000000000D+03 0.000000000000D+00
    2.000000000000D+00 0.000000000000D+00 3.725290298462D-09 3.600000000000D+01
    5.112180000000D+05 4.000000000000D+00
19 22  4 23  2  0  0.0 1.479433849454D-04 5.002220859751D-12 0.000000000000D+00
    2.800000000000D+01 8.978125000000D+01 3.995523572452D-09 2.693179608118D+00
    4.425644874573D-06 9.162529604509D-03 6.301328539848D-06 5.153704511642D+03
    5.256000000000D+05 1.583248376846D-07 2.289951252541D+00 4.284083843231D-08
    9.778604456412D-01 2.624375000000D+02 2.041261414023D+00-7.858898783251D-09
    9.250385315679D-11 1.000000000000D+00 2.206000000000D+03 0.000000000000D+00
    2.000000000000D+00 0.000000000000D+00-1.583248376846D-08 2.800000000000D+01
    5.184180000000D+05 4.000000000000D+00
13 22  4 23  2  0  0.0 2.989396452904D-04 6.707523425575D-12 0.000000000000D+00
    6.700000000000D+01-2.818750000000D+01 4.458757153704D-09-1.230455641988D-01
   -1.385807991028D-06 5.852899514139D-03 8.849427103996D-06 5.153672803879D+03
    5.256000000000D+05 9.313225746155D-09-8.237037048513D-01 3.539025783539D-08
    9.685616804360D-01 2.094687500000D+02 9.280566562792D-01-7.938902115711D-09
    1.171477368163D-10 1.000000000000D+00 2.206000000000D+03 0.000000000000D+00
    2.000000000000D+00 0.000000000000D+00-1.117587089539D-08 6.700000000000D+01
    5.184180000000D+05 4.000000000000D+00
17 22  4 23  2  0  0.0 6.037736311555D-04 4.661160346586D-12 0.000000000000D+00
    4.100000000000D+01 8.246875000000D+01 4.058740491404D-09 2.713555597797D-01
    4.112720489502D-06 1.351795787923D-02 6.487593054771D-06 5.153544670105D+03
    5.256000000000D+05-1.713633537292D-07 2.245124904430D+00-1.005828380585D-07
    9.790312701821D-01 2.618750000000D+02-1.494707254020D+00-8.211413466902D-09
    9.536111503035D-11 1.000000000000D+00 2.206000000000D+03 0.000000000000D+00
    2.000000000000D+00 0.000000000000D+00-1.117587089539D-08 4.100000000000D+01
    5.184180000000D+05 4.000000000000D+00
28 22  4 23  2  0  0.0 3.684251569211D-04-4.547473508865D-12 0.000000000000D+00
    1.130000000000D+02 5.075000000000D+01 4.328394580722D-09 7.995067911241D-01
    2.518296241760D-06 1.663293165620D-02 8.840113878250D-06 5.153685182571D+03
    5.256000000000D+05-1.732259988785D-07 1.228891548494D+00-2.849847078323D-07
    9.685704228344D-01 2.149687500000D+02-1.280352355906D+00-8.144267812873D-09
   -3.371569010811D-10 1.000000000000D+00 2.206000000000D+03 0.000000000000D+00
    2.800000000000D+00 6.300000000000D+01-1.117587089539D-08 1.130000000000D+02
    5.184180000000D+05 4.000000000000D+00
15 22  4 23  2  0  0.0-6.683403626084D-05 2.955857780762D-12 0.000000000000D+00
    9.000000000000D+01-3.500000000000D+01 5.331650656079D-09-6.256749695767D-01
   -1.735985279083D-06 1.398338831495D-02 8.713454008102D-06 5.153773357391D+03
    5.256000000000D+05-7.264316082001D-08-1.085477189248D+00 1.955777406693D-07
    9.299532739780D-01 1.945625000000D+02 1.087028619722D+00-8.534998374084D-09
    1.135761594744D-10 1.000000000000D+00 2.206000000000D+03 0.000000000000D+00
    2.000000000000D+00 0.000000000000D+00-1.071020960808D-08 9.000000000000D+01
    5.184180000000D+05 4.000000000000D+00
 6 22  4 23  2  0  0.0 2.766153775156D-04 1.398348103976D-11 0.000000000000D+00
    3.300000000000D+01-1.053125000000D+01 4.173030966347D-09-1.615399364850D+00
   -5.606561899185D-07 2.618553233333D-03 3.371387720108D-06 5.153712381363D+03
    5.256000000000D+05-1.396983861923D-07-3.048188701866D+00 1.862645149231D-08
    9.871268862085D-01 3.327500000000D+02-8.735152988813D-01-8.111052143593D-09
    1.135761594744D-10 1.000000000000D+00 2.206000000000D+03 0.000000000000D+00
    2.000000000000D+00 0.000000000000D+00 3.725290298462D-09 3.300000000000D+01
    5.184180000000D+05 4.000000000000D+00
30 22  4 23  2  0  0.0-5.249665118754D-04-1.591615728103D-12 0.000000000000D+00
    6.400000000000D+01 1.584375000000D+01 5.169143887020D-09-2.514672243335D+00
    7.133930921555D-07 5.724407848902D-03 7.495284080505D-06 5.153773731232D+03
    5.256000000000D+05-1.303851604462D-08 1.061206875069D-01-4.097819328308D-08
    9.363768258419D-01 2.220312500000D+02-2.713850159278D+00-8.149982336620D-09
   -4.750197864808D-11 1.000000000000D+00 2.206000000000D+03 0.000000000000D+00
    2.000000000000D+00 0.000000000000D+00 3.725290298462D-09 6.400000000000D+01
    5.184180000000D+05 4.000000000000D+00
14 22  4 23  2  0  0.0-1.043267548084D-04-2.501110429876D-12 0.000000000000D+00
    4.000000000000D+01 5.659375000000D+01 4.554475426468D-09-3.138897256287D+00
    3.065913915634D-06 1.736831385642D-03 8.756294846535D-06 5.153655595779D+03
    5.256000000000D+05-3.166496753693D-08 1.174500053887D+00-6.519258022308D-08
    9.529336484372D-01 2.048437500000D+02 3.067064243765D+00-7.976760835535D-09
   -2.964409193828D-10 1.000000000000D+00 2.206000000000D+03 0.000000000000D+00
    2.000000000000D+00 0.000000000000D+00-7.450580596924D-09 4.000000000000D+01
    5.184180000000D+05 4.000000000000D+00
12 22  4 23  2  0  0.0-2.045086584985D-04-5.798028723802D-12 0.000000000000D+00
    8.100000000000D+01 4.650000000000D+01 4.085527321469D-09 3.131946780349D+00
    2.456828951836D-06 8.700876845978D-03 8.516013622284D-06 5.153563489914D+03
    5.256000000000D+05-3.725290298462D-09 1.206861740167D+00 1.303851604462D-08
    9.695123050848D-01 2.183750000000D+02 1.275250451049D+00-7.624603309618D-09
   -2.707255625206D-10 1.000000000000D+00 2.206000000000D+03 0.000000000000D+00
    2.000000000000D+00 0.000000000000D+00-1.257285475731D-08 8.100000000000D+01
    5.184180000000D+05 4.000000000000D+00
24 22  4 23  2  0  0.0 2.527004107833D-04-5.570655048359D-12 0.000000000000D+00
    7.400000000000D+01 1.818750000000D+01 5.197359348021D-09-1.562844581447D+00
    9.350478649139D-07 1.243333611637D-02 7.091090083122D-06 5.153684492111D+03
    5.256000000000D+05 2.793967723846D-07 1.016587332371D-02-9.313225746155D-08
    9.346962299412D-01 2.285937500000D+02 8.140386571433D-01-8.176054851217D-09
   -3.678724662220D-11 1.000000000000D+00 2.206000000000D+03 0.000000000000D+00
    2.000000000000D+00 0.000000000000D+00 2.328306436539D-09 7.400000000000D+01
    5.184180000000D+05 4.000000000000D+00
11 22  4 23  2  0  0.0-3.543263301253D-05 6.366462912410D-12 0.000000000000D+00
    1.390000000000D+02-1.806250000000D+01 4.694838416008D-09 2.283753689337D-01
   -9.033828973770D-07 3.085007192567D-04 3.153458237648D-06 5.153566631317D+03
    5.256000000000D+05-1.117587089539D-08-2.997732576852D+00 5.960464477539D-08
    9.629226725201D-01 3.207812500000D+02 2.872104192748D+00-8.306417424198D-09
    1.082187934614D-10 1.000000000000D+00 2.206000000000D+03 0.000000000000D+00
    2.000000000000D+00 6.300000000000D+01-8.847564458847D-09 9.070000000000D+02
    5.184180000000D+05 4.000000000000D+00
 5 22  4 23  2  0  0.0-7.927929982543D-05-1.364242052659D-12 0.000000000000D+00
    6.100000000000D+01-8.959375000000D+01 4.713410618186D-09 7.986773355911D-01
   -4.436820745468D-06 5.914009758271D-03 6.413087248802D-06 5.153707643509D+03
    5.256000000000D+05-2.235174179077D-08-2.047174686894D+00 4.470348358154D-08
    9.602523979096D-01 2.585937500000D+02 1.013003870649D+00-8.228914195878D-09
   -1.285767843106D-11 1.000000000000D+00 2.206000000000D+03 0.000000000000D+00
    2.000000000000D+00 0.000000000000D+00-1.117587089539D-08 6.100000000000D+01
    5.184180000000D+05 4.000000000000D+00
 2 22  4 23  2  0  0.0-6.532156839967D-04-1.136868377216D-13 0.000000000000D+00
    5.800000000000D+01 5.531250000000D+00 4.562332896621D-09-1.715283000605D+00
    8.232891559601D-07 2.047498873435D-02 3.295019268990D-06 5.153650632858D+03
    5.256000000000D+05-7.450580596924D-09-3.130526652624D+00 5.755573511124D-07
    9.659573336916D-01 3.195937500000D+02-1.423150299991D+00-8.184983794572D-09
    1.307197307158D-10 1.000000000000D+00 2.206000000000D+03 0.000000000000D+00
    2.000000000000D+00 0.000000000000D+00-1.769512891769D-08 5.800000000000D+01
    5.184180000000D+05 4.000000000000D+00
